TRITON-1                
1 39427U 13066M   26183.62507564  .00001456  00000+0  17902-3 0  9993
2 39427  97.8239  93.0805 0089543 183.0316 177.0367 14.81753948676371
GOMX-1                  
1 39430U 13066Q   26183.50661862  .00001523  00000+0  23355-3 0  9990
2 39430  97.6468  23.0020 0129378  28.8657 331.9628 14.69510115672161
CUBEBUG-2 (LO-74)       
1 39440U 13066AA  26183.60329776  .00005482  00000+0  50528-3 0  9997
2 39440  97.8915 132.6479 0056651 338.1191  21.7609 14.93890310679298
NEE-02 KRYSAOR          
1 39441U 13066AB  26183.55500345  .00002950  00000+0  32516-3 0  9999
2 39441  97.8896 122.6607 0066608  20.7402 339.6493 14.86690645678484
FUNCUBE-1 (AO-73)       
1 39444U 13066AE  26183.43482958  .00007511  00000+0  46292-3 0  9992
2 39444  97.8285 155.2011 0037288 149.2742 211.0681 15.09675808681965
UWE-3                   
1 39446U 13066AG  26183.58834462  .00003508  00000+0  30245-3 0  9994
2 39446  97.8709 139.7682 0047192 268.5027  91.0788 14.97137588679881
SMDC ONE 2.4            
1 39469U 13072H   26183.54481744  .00012576  00000+0  46820-3 0  9994
2 39469 120.4917  51.3910 0147063  35.2555 325.8145 15.18507552120169
COSMOS 2488 (RODNIK-S 7)
1 39483U 13076A   26183.65400825 -.00000014  00000+0 -17665-3 0  9998
2 39483  82.4837 159.0588 0020839  63.4759 296.8454 12.42905959567814
COSMOS 2489 (RODNIK-S 8)
1 39484U 13076B   26183.62953622 -.00000159  00000+0 -12208-2 0  9991
2 39484  82.4872 160.4579 0022667  63.3754 296.9644 12.42879138567861
COSMOS 2490 (RODNIK-S 9)
1 39485U 13076C   26183.60144765 -.00000093  00000+0 -74533-3 0  9997
2 39485  82.4820 158.5361 0022902  78.2343 282.1304 12.42878380567793
KAZEOSAT 1              
1 39731U 14024A   26183.63320321  .00000444  00000+0  14808-3 0  9999
2 39731  98.3205 255.6965 0001165  77.5473 282.5847 14.42086933640787
COSMOS 2496 (RODNIK-S *)
1 39761U 14028A   26183.55894593  .00000040  00000+0  21893-3 0  9998
2 39761  82.4464  99.1048 0021233  47.2221 313.0640 12.42878997549424
COSMOS 2497 (RODNIK-S *)
1 39762U 14028B   26183.61452759  .00000024  00000+0  10520-3 0  9997
2 39762  82.4513 100.7656 0021738  42.2898 317.9853 12.42894683549439
COSMOS 2498 (RODNIK-S *)
1 39763U 14028C   26183.67155325  .00000105  00000+0  68707-3 0  9993
2 39763  82.4472  99.2104 0022431  41.7764 318.5023 12.42980802549470
HODOYOSHI-4             
1 40011U 14033B   26183.63360916  .00000720  00000+0  83475-4 0  9990
2 40011  97.5450   7.7105 0022021 253.9324 105.9469 14.88161499651101
UNISAT-6                
1 40012U 14033C   26183.39512737  .00002882  00000+0  31173-3 0  9992
2 40012  97.7896 335.8406 0045254  20.1232 340.1756 14.88320443648421
DEIMOS-2                
1 40013U 14033D   26183.59026873  .00001409  00000+0  13813-3 0  9991
2 40013  97.5804  57.5366 0000814  73.1694 286.9615 14.93764312640027
BUGSAT-1 (TITA)         
1 40014U 14033E   26183.61674565  .00007837  00000+0  41029-3 0  9993
2 40014  98.0435 277.0702 0028912 126.8389 233.5500 15.15762348658171
SAUDISAT 4              
1 40016U 14033G   26183.40301940  .00000674  00000+0  95332-4 0  9995
2 40016  97.7602 329.0128 0045325  25.6126 334.7318 14.79563911648328
APRIZESAT 9             
1 40018U 14033J   26183.61497833  .00000915  00000+0  14128-3 0  9998
2 40018  97.9081 316.4379 0066859 149.7034 210.8067 14.74237994645834
BRITE-CA1 (TORONTO)     
1 40020U 14033L   26183.59702273  .00001152  00000+0  18040-3 0  9996
2 40020  97.9759 312.2426 0077603 226.8808 132.5892 14.72702923644484
